LEGION 1                
1 59625U 24081A   26187.16132006  .00004454  00000+0  22995-3 0  9991
2 59625  97.5008 264.8169 0007898 307.1062  52.9448 15.16803450120418
LEGION 2                
1 59626U 24081B   26187.19157248  .00003714  00000+0  19241-3 0  9998
2 59626  97.5008 264.9439 0009865 269.2409  90.7694 15.16781695120429
LEGION 3                
1 60452U 24146A   26187.10910478  .00003749  00000+0  20744-3 0  9990
2 60452  45.0021 289.0890 0008884 286.7069  73.2834 15.15617435104890
LEGION 4                
1 60453U 24146B   26187.04448355  .00004629  00000+0  24877-3 0  9993
2 60453  45.0022  21.3212 0011588  54.7631 305.4331 15.16192152103739
